RAVAN                   
1 41849U 16067B   19031.20281924  .00000678  00000-0  62460-4 0  9991
2 41849  97.9192 128.3266 0009924 122.3013 237.9172 14.98068930121260
CELTEE 1                
1 41850U 16067C   19031.17422767 -.00000387  00000-0 -28380-4 0  9993
2 41850  97.9172 127.3090 0009831 120.6084 239.6107 14.96936945121209
OPTICUBE 04             
1 41851U 16067D   19031.23129129 -.00000260  00000-0 -17425-4 0  9995
2 41851  97.9172 127.2100 0010094 120.8556 239.3660 14.96758658121204
AEROCUBE 8D             
1 41852U 16067E   19031.22411224  .00000235  00000-0  25876-4 0  9994
2 41852  97.9185 127.0299 0011016 121.5761 238.6537 14.96635011121186
AEROCUBE 8C             
1 41853U 16067F   19031.71172915 -.00000215  00000-0 -13547-4 0  9992
2 41853  97.9177 127.4705 0011050 122.5840 237.6449 14.96594445121255
PROMETHEUS 2-1          
1 41854U 16067G   19031.22905084  .00000091  00000-0  13275-4 0  9998
2 41854  97.9191 127.0598 0011574 122.7080 237.5258 14.96773116121180
PROMETHEUS 2-3          
1 41855U 16067H   19031.69971215 -.00000078  00000-0 -15258-5 0  9990
2 41855  97.9192 127.5469 0011680 121.9033 238.3326 14.96774283121250
INS-1B                  
1 41954U 17008G   19031.13055554  .00001080  00000-0  48090-4 0  9995
2 41954  97.4187  97.8901 0007642 273.0885  86.9477 15.23577106108701
BGUSAT                  
1 41999U 17008BD  19030.77573991  .00001775  00000-0  72915-4 0  9997
2 41999  97.4246  99.3566 0006661 292.8067  67.2467 15.25505904108116
DIDO-2                  
1 42000U 17008BE  19030.66022170  .00000726  00000-0  33265-4 0  9997
2 42000  97.4202  97.9464 0007061 298.4157  61.6368 15.23629067108034
PEASSS                  
1 42015U 17008BV  19031.75870988  .00001011  00000-0  44021-4 0  9992
2 42015  97.4203  99.7849 0004981 303.5467  56.5294 15.24526394108736
AL-FARABI 1             
1 42016U 17008BW  19031.22018523  .00001267  00000-0  53546-4 0  9999
2 42016  97.4216  99.6441 0004867 305.4965  54.5818 15.25069674108795
NAYIF-1 (EO-88)         
1 42017U 17008BX  19030.81683897  .00001188  00000-0  50335-4 0  9991
2 42017  97.4214  99.2530 0004878 307.8016  52.2780 15.25097339108752
HAVELSAT                
1 42700U 98067LH  19031.74954609  .00175357  23793-4  36474-3 0  9994
2 42700  51.6207 249.1121 0002270 197.8766 162.2164 15.98720783 98178
CXBN-2                  
1 42704U 98067LM  19030.65845664  .00146514  19904-4  32235-3 0  9990
2 42704  51.6247 256.9267 0002823 210.8471 149.2373 15.97784934 97898
PHOENIX                 
1 42706U 98067LP  19031.78632775  .00044085  00000-0  20483-3 0  9999
2 42706  51.6267 260.8745 0000516 181.7551 178.3450 15.82933046 97937
X-CUBESAT               
1 42707U 98067LQ  19031.82555452  .01099404  89075-3  63715-3 0  9994
2 42707  51.6141 243.3910 0006866 259.2325 100.7919 16.18333995 98154
QBEE50-LTU-OC           
1 42708U 98067LR  19031.78217439  .00189557  25956-4  38783-3 0  9994
2 42708  51.6211 250.1087 0003144 221.2117 138.8655 15.98981893 98026
ALTAIR PATHFINDER       
1 42711U 98067LS  19031.82017677  .00020651  00000-0  15803-3 0  9991
2 42711  51.6335 280.0746 0001996 341.8258  18.2668 15.72112513 97345
SHARC                   
1 42712U 98067LT  19031.78544707  .00057209  00000-0  30077-3 0  9995
2 42712  51.6314 276.8580 0000963 143.4230 216.6837 15.80147518 97626
ZA-AEROSAT              
1 42713U 98067LU  19031.27346198  .00039665  00000-0  20032-3 0  9990
2 42713  51.6336 268.7760 0000152 246.0164 114.0822 15.81185066 97443
CSUNSAT 1               
1 42715U 98067LW  19031.79858077  .00053628  00000-0  23830-3 0  9997
2 42715  51.6304 263.2600 0000583 308.2525  51.8425 15.83796016 97568
SPACECUBE               
1 42717U 98067LY  19031.77723644  .00181112  24520-4  38776-3 0  9990
2 42717  51.6163 250.7086 0002581 202.4228 157.6668 15.98193635 97093
NJUST-1                 
1 42722U 98067MB  19031.70689410  .00032697  00000-0  18865-3 0  9994
2 42722  51.6380 270.7811 0003084  49.8486  50.3715 15.78342890 96522
LILACSAT-1              
1 42725U 98067ME  19031.80239282  .00088858  00000-0  29103-3 0  9993
2 42725  51.6322 258.6080 0002430 138.9673 272.4518 15.89837390 96609
NSIGHT-1                
1 42726U 98067MF  19031.14733459  .00012595  00000-0  12581-3 0  9993
2 42726  51.6384 294.5149 0004670  19.6165 340.5010 15.66026814 96073
SNUSAT-1                
1 42727U 98067MG  19031.76893257  .00084783  00000-0  28858-3 0  9997
2 42727  51.6278 259.1430 0000747 340.4499  19.6478 15.89092820 96552
POLYITAN-2-SAU          
1 42732U 98067MM  19031.82582937  .00941413  58894-3  63790-3 0  9993
2 42732  51.6196 245.0018 0006856 262.3649  97.6589 16.16147754 96635
SNUSAT-1B               
1 42733U 98067MN  19031.81404139  .00116389  16337-4  32856-3 0  9992
2 42733  51.6240 254.8846 0001380 256.3330 103.7524 15.93303870 96501
BEEAGLESAT              
1 42736U 98067MR  19031.77500565  .00053462  00000-0  22440-3 0  9996
2 42736  51.6289 262.2706 0002053  54.4888 305.6306 15.84993864 96462
UCLSAT                  
1 42765U 17036A   19030.80046255  .00000975  00000-0  45155-4 0  9999
2 42765  97.3718  91.6572 0011629   6.5883 353.5504 15.22388980 89929
LITUANICASAT-2          
1 42768U 17036D   19031.62820715  .00001662  00000-0  75153-4 0  9999
2 42768  97.3744  92.0248 0014880 351.5140   8.5843 15.22227815 89301
AALTO-1                 
1 42775U 17036L   19031.39506857  .00000686  00000-0  33875-4 0  9999
2 42775  97.3706  91.2927 0013759 352.3235   7.7788 15.21100361 89180
URSA MAIOR              
1 42776U 17036M   19030.64348034  .00000680  00000-0  33507-4 0  9994
2 42776  97.3715  90.6628 0013605 355.1019   5.0082 15.21215126 89075
COMPASS 2               
1 42777U 17036N   19030.80579183  .00001259  00000-0  57374-4 0  9995
2 42777  97.3746  91.6488 0012409 357.2146   2.9020 15.22428320 89138
DIAMOND RED             
1 42783U 17036U   19031.58772157  .00000843  00000-0  40022-4 0  9994
2 42783  97.3717  92.1374 0012185   3.8742 356.2587 15.21907236 89242
PEGASUS                 
1 42784U 17036V   19030.93430102  .00000908  00000-0  42541-4 0  9994
2 42784  97.3721  91.6528 0012166   5.9779 354.1600 15.22163118 89152
DIAMOND GREEN           
1 42785U 17036W   19030.73176952  .00000785  00000-0  37444-4 0  9992
2 42785  97.3721  91.3183 0012198   7.5059 352.6358 15.21905180 89101
DIAMOND BLUE            
1 42786U 17036X   19030.73077852  .00000781  00000-0  37274-4 0  9999
2 42786  97.3720  91.3167 0012047   7.8576 352.2847 15.21905780 89108
NUDTSAT                 
1 42787U 17036Y   19031.20947849  .00001228  00000-0  55155-4 0  9990
2 42787  97.3755  92.3915 0013107   1.2365 358.8909 15.22965819 89067
SUCHAI                  
1 42788U 17036Z   19031.10781149  .00001117  00000-0  51115-4 0  9998
2 42788  97.3724  92.0347 0011697   5.1491 354.9864 15.22518325 89260
SKCUBE                  
1 42789U 17036AA  19030.58988156  .00000992  00000-0  45816-4 0  9998
2 42789  97.3722  91.4942 0011617   7.0869 353.0529 15.22442515 89103
VZLUSAT-1               
1 42790U 17036AB  19030.73678792  .00001328  00000-0  59426-4 0  9995
2 42790  97.3732  91.9305 0011169   6.4860 353.6519 15.22974943 89144
ROBUSTA-1B              
1 42792U 17036AD  19031.38994594  .00001101  00000-0  50322-4 0  9995
2 42792  97.3720  92.3920 0011144   5.4802 354.6554 15.22604604 89244
CICERO 6                
1 42793U 17036AE  19031.74709598  .00000745  00000-0  35290-4 0  9994
2 42793  97.3706  92.6286 0010400   6.3442 353.7924 15.22310911 89360
D-SAT                   
1 42794U 17036AF  19030.82607398  .00000275  00000-0  29635-4 0  9992
2 42794  97.5610  81.4844 0125458 244.0864 114.7380 14.91010703 87643
TOKI                    
1 42820U 98067MU  19031.69589307  .00051841  00000-0  23405-3 0  9993
2 42820  51.6303 267.0447 0000520 201.7998 158.2983 15.83473696 89857
MAZAALAI (NUMSAT-1)     
1 42822U 98067MW  19031.10877752  .00049788  00000-0  23645-3 0  9998
2 42822  51.6320 271.4103 0000078 172.0340 188.0664 15.82410623 89728
BRAC ONNESHA            
1 42823U 98067MX  19030.88155172  .00049275  00000-0  22861-3 0  9998
2 42823  51.6293 272.1379 0001084 335.7718  24.3234 15.82915319 89699
NIGERIAEDUSAT-1         
1 42824U 98067MY  19031.15138856  .00047190  00000-0  22666-3 0  9997
2 42824  51.6328 271.7554 0001722   7.1080 352.9947 15.82190962 89713
CORVUS BC2              
1 42846U 17042X   19031.18316931  .00000206  00000-0  25625-4 0  9996
2 42846  97.5811 290.5761 0010293 148.9492 211.2338 14.91915357 84365
CORVUS BC1              
1 42847U 17042Y   19031.21274183  .00000125  00000-0  17592-4 0  9997
2 42847  97.5811 290.6885 0009939 148.2961 211.8859 14.92015530 84362
SILU-1 (SILKROAD 1)     
1 42903U 17021F   19031.83858541  .00067555  98574-5  22626-3 0  9992
2 42903  42.7720   8.3586 0015234 139.4199 297.9013 15.89732880 86076
MIRATA                  
1 43015U 17073C   19030.83996701  .00000696  00000-0  60744-4 0  9993
2 43015  97.7172 317.5066 0255035 250.1023 107.2547 14.78672065 64775
MAKERSAT 0              
1 43016U 17073D   19031.78278787  .00000463  00000-0  42289-4 0  9992
2 43016  97.7206 318.5939 0256923 247.1810 110.2081 14.78517684 64908
ASTERIA                 
1 43020U 98067NH  19031.22405300  .00015120  00000-0  15481-3 0  9990
2 43020  51.6424 304.1452 0001428 325.3328  34.7574 15.65218036 68138
DELLINGR (RBLE)         
1 43021U 98067NJ  19031.76863103  .00007599  00000-0  95736-4 0  9992
2 43021  51.6398 307.7076 0001449 311.7790  48.3079 15.60721321 68137
OSIRIS-3U               
1 43027U 98067NL  19031.77365856  .00157067  20141-4  50950-3 0  9997
2 43027  51.6335 277.4635 0002998 201.1938 158.8945 15.90474218 68417
AEROCUBE 7B             
1 43042U 17071F   19031.15437070  .00002873  00000-0  80111-4 0  9995
2 43042  51.6396   9.7595 0005099  20.5032 339.6156 15.40263933 64723
